satname,norad_id,inclination_deg,eccentricity,mean_motion_rev_per_day,perigee_km,apogee_km,l1,l2
STARLINK-1133,45064,53.0528,0.0001591,15.06392323,546.13326023848,548.3369136365436,1 45064U 20006W   25278.31312981  .00000189  00000+0  31572-4 0  9998,2 45064  53.0528 244.1276 0001591  94.2479 265.8692 15.06392323313325
STARLINK-1150,45067,53.0318,0.0007461,16.34205585,176.36800876757388,186.1559439200746,1 45067U 20006Z   25278.85123808  .05654790  12147-4  78738-3 0  9990,2 45067  53.0318 176.6188 0007461 230.1686 129.8702 16.34205585314315
STARLINK-1167,45071,53.0538,0.0001535,15.06390133,546.1787533915849,548.3048446828889,1 45071U 20006AD  25278.13988728  .00000405  00000+0  46083-4 0  9998,2 45071  53.0538 244.9114 0001535  95.5743 264.5421 15.06390133313298
STARLINK-1168,45072,53.0528,0.0001328,15.06404005,546.2795985588864,548.11896787571,1 45072U 20006AE  25278.14358551  .00005533  00000+0  39002-3 0  9994,2 45072  53.0528 244.8932 0001328  97.2262 262.8877 15.06404005313290
STARLINK-1172,45074,53.0532,0.0001422,15.0643411,546.1222479743246,548.0917873729504,1 45074U 20006AG  25278.22096431  .00013558  00000+0  92646-3 0  9990,2 45074  53.0532 244.5461 0001422  90.8681 269.2471 15.06434110313303
STARLINK-1153,45080,53.0539,0.0001403,15.06390512,546.269006961852,548.2122679269187,1 45080U 20006AN  25278.13251580 -.00000358  00000+0 -51695-5 0  9992,2 45080  53.0539 244.9436 0001403  97.6658 262.4491 15.06390512313293
STARLINK-1151,45081,53.0533,0.0001477,15.06392856,546.2105761399225,548.256330571845,1 45081U 20006AP  25278.11778791  .00001975  00000+0  15144-3 0  9990,2 45081  53.0533 245.0829 0001477  94.5153 265.6004 15.06392856313291
STARLINK-1190,45083,53.0472,0.0007629,15.78103355,330.6926254793607,340.93677298204693,1 45083U 20006AR  25278.08087206  .00191551  00000+0  10784-2 0  9996,2 45083  53.0472 210.5878 0007629  89.1254 271.0640 15.78103355313776
STARLINK-1173,45084,53.0418,0.0004086,15.92030216,293.8749407089035,299.3295376151473,1 45084U 20006AS  25278.58335647  .00374147  64425-4  11083-2 0  9990,2 45084  53.0418 170.7948 0004086  75.1434 353.5474 15.92030216  5940
STARLINK-1179,45085,53.0243,0.0004864,16.42084533,157.08294975693389,163.44350549836963,1 45085U 20006AT  25278.13464752  .10053174  12378-4  56146-3 0  9997,2 45085  53.0243 161.3818 0004864 238.8325 121.2245 16.42084533314463
STARLINK-1185,45087,53.0535,0.0001594,15.06387655,546.145487252481,548.3533004348392,1 45087U 20006AV  25278.16016838 -.00001643  00000+0 -91424-4 0  9998,2 45087  53.0535 224.8158 0001594  88.1435 271.9737 15.06387655313587
STARLINK-1183,45088,53.0542,0.000154,15.06389726,546.1765379203625,548.3095549746686,1 45088U 20006AW  25278.24861978 -.00002290  00000+0 -13490-3 0  9996,2 45088  53.0542 224.4196 0001540  87.7921 272.3244 15.06389726313590
STARLINK-1176,45090,53.0468,0.0001601,15.88898285,304.3005330140868,306.4405921356238,1 45090U 20006AY  25278.58335647  .00359854  00000+0  11927-2 0  9996,2 45090  53.0468 168.8032 0001601  58.7105  32.2843 15.88898285  6019
STARLINK-1142,45093,53.0375,0.0005157,15.53943634,401.7269145528944,408.7232742170427,1 45093U 20006BB  25278.40278796  .00106190  00000+0  16021-2 0  9994,2 45093  53.0375 166.4881 0005157 132.7239 227.4206 15.53943634314425
STARLINK-1147,45095,53.037,0.0001813,16.04571048,260.57449381147944,262.9821271030505,1 45095U 20006BD  25278.18488144  .00602933  18430-3  88189-3 0  9992,2 45095  53.0370 166.2832 0001813 122.9250 237.1956 16.04571048314406
STARLINK-1152,45096,53.0464,0.0008568,15.2228014,493.0725071679417,504.857108826126,1 45096U 20006BE  25278.21072340  .00013077  00000+0  57361-3 0  9997,2 45096  53.0464 209.8644 0008568  89.2539 270.9439 15.22280140313796
STARLINK-1184,45098,53.0538,0.0001438,15.06390964,546.2433830102354,548.2351212203439,1 45098U 20006BG  25278.13068096  .00000067  00000+0  23379-4 0  9991,2 45098  53.0538 224.9499 0001438  93.9575 266.1579 15.06390964313573
STARLINK-1193,45100,53.0534,0.0001508,15.06392102,546.1914180636641,548.2801104893697,1 45100U 20006BJ  25278.25967991  .00001422  00000+0  11438-3 0  9998,2 45100  53.0534 224.3683 0001508  94.8611 265.2550 15.06392102313598
STARLINK-1143,45179,53.0567,0.0004868,15.36433953,453.3373919159185,459.9917547277055,1 45179U 20012B   25278.46844529  .00058222  00000+0  16123-2 0  9990,2 45179  53.0567 353.0213 0004868 292.9992  67.0496 15.36433953311873
STARLINK-1202,45183,53.0566,0.0001329,15.06411641,546.2555060978684,548.0962542614207,1 45183U 20012F   25278.52137895  .00011463  00000+0  78695-3 0  9992,2 45183  53.0566  23.1970 0001329  91.7508 268.3633 15.06411641311459
STARLINK-1216,45185,53.0555,0.0001616,15.06402147,546.0858424367216,548.3241129639136,1 45185U 20012H   25278.51400230 -.00000725  00000+0 -29743-4 0  9991,2 45185  53.0555  23.2293 0001616  86.4077 273.7096 15.06402147311396
STARLINK-1225,45187,53.0557,0.000154,15.0640571,546.1275566830654,548.2605586488271,1 45187U 20012K   25278.46608953  .00000737  00000+0  68354-4 0  9991,2 45187  53.0557  23.4451 0001540  94.7345 265.3819 15.06405710311438
STARLINK-1230,45189,53.0551,0.0001197,15.06403005,546.3733849414248,548.0313111813493,1 45189U 20012M   25278.46977552 -.00000866  00000+0 -39271-4 0  9998,2 45189  53.0551  23.4293 0001197  94.3416 265.7710 15.06403005308661
STARLINK-1234,45190,53.0558,0.0001365,15.06435914,546.1561938338973,548.0467839413641,1 45190U 20012N   25278.48820417  .00011335  00000+0  77784-3 0  9990,2 45190  53.0558 343.3468 0001365  96.7014 263.4131 15.06435914311902
STARLINK-1269,45197,53.0553,0.0001707,15.06418869,545.9715806473259,548.3358749017871,1 45197U 20012V   25278.48084299  .00010866  00000+0  74684-3 0  9991,2 45197  53.0553  23.3819 0001707  77.8474 282.2706 15.06418869311412
STARLINK-1154,45198,53.0567,0.0001379,15.06398447,546.2613114411879,548.1713238861994,1 45198U 20012W   25278.53798382  .00011530  00000+0  79168-3 0  9994,2 45198  53.0567   3.1243 0001379  95.6232 264.4914 15.06398447311670
STARLINK-1199,45201,53.0548,0.0001578,15.0640068,546.1166541634284,548.302293510571,1 45201U 20012Z   25278.48267627  .00010509  00000+0  72330-3 0  9995,2 45201  53.0548   3.3703 0001578  82.8669 277.2500 15.06400680311722
STARLINK-1209,45206,53.0554,0.0001359,15.06422619,546.2010893804172,548.0833802764446,1 45206U 20012AE  25278.49189957  .00013535  00000+0  92522-3 0  9997,2 45206  53.0554 343.3329 0001359  93.8615 266.2530 15.06422619311058
STARLINK-1210,45207,53.0269,0.0013007,15.50134238,407.49621590491734,425.1713522025548,1 45207U 20012AF  25278.37880115  .00105430  00000+0  18186-2 0  9998,2 45207  53.0269 312.4221 0013007 318.5417  41.4603 15.50134238312433
STARLINK-1231,45212,53.0538,0.0002883,15.1027798,533.3583884329983,537.344705929303,1 45212U 20012AL  25278.51489701  .00020804  00000+0  12703-2 0  9996,2 45212  53.0538   2.4403 0002883 286.6427  73.4247 15.10277980311696
STARLINK-1271,45217,53.0554,0.0001481,15.0641787,546.131153493222,548.1824255136735,1 45217U 20012AR  25278.53427416  .00013621  00000+0  93109-3 0  9997,2 45217  53.0554   3.1389 0001481  83.1888 276.9270 15.06417870311734
STARLINK-1191,45222,53.055,0.0001327,15.06419541,546.2326824288293,548.0706540413785,1 45222U 20012AW  25278.47715412  .00009240  00000+0  63806-3 0  9995,2 45222  53.0550 343.3957 0001327  79.3963 280.7175 15.06419541312001
STARLINK-1212,45223,53.0539,0.0001374,15.06392285,546.2836572622828,548.1867495437782,1 45223U 20012AX  25278.49567740 -.00000714  00000+0 -29043-4 0  9992,2 45223  53.0539 343.9668 0001374  87.4268 272.6878 15.06392285312009
STARLINK-1215,45225,53.055,0.0001474,15.06408067,546.166041122362,548.2076265885817,1 45225U 20012AZ  25278.45134080 -.00000794  00000+0 -34400-4 0  9998,2 45225  53.0550 343.5112 0001474  97.9370 262.1786 15.06408067311956
STARLINK-1217,45226,53.0388,0.0001911,15.99825175,273.63194655155985,276.17473857048753,1 45226U 20012BA  25278.58335647  .00476435  10901-3  92225-3 0  9995,2 45226  53.0388 284.8556 0001911  40.8148  15.5076 15.99825175  5857
STARLINK-1221,45227,53.0675,0.0002064,15.35705315,457.4151680031764,460.2374664605295,1 45227U 20012BB  25278.29648541  .00018942  00000+0  54717-3 0  9998,2 45227  53.0675 282.4983 0002064 236.8562 123.2242 15.35705315312780
STARLINK-1222,45228,53.0554,0.0001287,15.06409711,546.2905067528518,548.0730838107584,1 45228U 20012BC  25278.41817404  .00008636  00000+0  59782-3 0  9995,2 45228  53.0554 343.6596 0001287  94.3880 265.7256 15.06409711311889
STARLINK-1226,45229,53.0549,0.0001339,15.06418954,546.2261708736823,548.080763660817,1 45229U 20012BD  25278.44767594  .00012593  00000+0  86236-3 0  9994,2 45229  53.0549 343.5277 0001339  86.5652 273.5490 15.06418954311894
STARLINK-1227,45230,53.0547,0.0001462,15.06402051,546.1927868856528,548.2177569659643,1 45230U 20012BE  25278.44397458  .00011792  00000+0  80913-3 0  9990,2 45230  53.0547 343.5434 0001462  87.3985 272.7171 15.06402051312017
STARLINK-1238,45233,53.0242,0.0003439,16.45270322,149.57450825556407,154.06581279057264,1 45233U 20012BH  25278.20117288  .12839881  12490-4  37121-3 0  9992,2 45233  53.0242 301.1109 0003439 250.7840 109.2836 16.45270322312552
STARLINK-1246,45235,53.0547,0.000113,15.06381928,546.4843759232099,548.049517215135,1 45235U 20012BK  25278.45872079  .00000966  00000+0  83778-4 0  9997,2 45235  53.0547  23.4769 0001130  93.8866 266.2253 15.06381928311465
STARLINK-1247,45236,53.0318,0.0001977,16.18205734,223.12265446864149,225.7333086623512,1 45236U 20012BL  25278.43489203  .01813282  33666-2  11192-2 0  9999,2 45236  53.0318 280.4272 0001977  26.5085 333.6053 16.18205734312878
STARLINK-1270,45237,53.0554,0.0001358,15.0641141,546.2361305670756,548.1170457376184,1 45237U 20012BM  25278.46239753 -.00002161  00000+0 -12619-3 0  9992,2 45237  53.0554 343.4610 0001358  82.8973 277.2171 15.06411410312006
